STARLINK-30380          
1 57780U 23134K   26068.66358598 -.00002094  00000+0 -66602-4 0  9992
2 57780  43.0014 194.5511 0001768 269.1236  90.9413 15.27567352139505
REAL                    
1 64875U 25154G   26068.72233414  .00022901  00000+0  82904-3 0  9994
2 64875  97.4133 137.2581 0001853 118.5876 241.5550 15.28408058 34830
